LUCH 5V (SDCM/PRN 141)  
1 39727U 14023A   22283.83425293 -.00000277  00000+0  00000+0 0  9996
2 39727   1.7700  76.5570 0003038 141.3796 196.5318  1.00275247 30868
GPS BIIF-6  (PRN 06)    
1 39741U 14026A   22283.30278340 -.00000106  00000+0  00000+0 0  9997
2 39741  56.6128  23.7650 0026799 304.8703  54.8918  2.00580347 61545
COSMOS 2500 (755)       
1 40001U 14032A   22283.67680705 -.00000082  00000+0  00000+0 0  9990
2 40001  65.7700 359.1363 0007993 199.9382 153.9472  2.13102374 64779
GPS BIIF-7  (PRN 09)    
1 40105U 14045A   22283.38643118  .00000045  00000+0  00000+0 0  9992
2 40105  54.7153 142.2149 0023542 111.4455 248.9038  2.00555076 59083
GSAT0201 (PRN E18)      
1 40128U 14050A   22283.01609972 -.00000093  00000+0  00000+0 0  9997
2 40128  50.2042 327.7169 1619373 128.2164 247.5151  1.85519262 55283
GSAT0202 (PRN E14)      
1 40129U 14050B   22283.27670080 -.00000094  00000+0  00000+0 0  9995
2 40129  50.2275 326.7703 1616523 129.0354 246.5123  1.85519918 55511
IRNSS-1C                
1 40269U 14061A   22284.10766057 -.00000167  00000+0  00000+0 0  9996
2 40269   3.2042 124.0558 0019123   8.5635   8.8315  1.00274020 29330
GPS BIIF-8  (PRN 03)    
1 40294U 14068A   22283.75201846 -.00000017  00000+0  00000+0 0  9995
2 40294  55.9067  83.3839 0042665  58.4562 301.9669  2.00549502 58228
COSMOS 2501 (702K)      
1 40315U 14075A   22284.58425030  .00000003  00000+0  00000+0 0  9996
2 40315  63.6751 237.1042 0018958 211.8673 286.7444  2.13101370 61203
GPS BIIF-9  (PRN 26)    
1 40534U 15013A   22283.39980481 -.00000028  00000+0  00000+0 0  9994
2 40534  53.6372 259.9309 0071716  20.0929 340.1572  2.00575069 54831
GSAT0203 (PRN E26)      
1 40544U 15017A   22280.65624016 -.00000106  00000+0  00000+0 0  9991
2 40544  56.8292  18.3098 0003793 228.3941 131.5847  1.70476135 46217
GSAT0204 (PRN E22)      
1 40545U 15017B   22282.08239328 -.00000108  00000+0  00000+0 0  9991
2 40545  56.8357  18.2838 0004047 213.9866 146.0015  1.70475699  9288
IRNSS-1D                
1 40547U 15018A   22283.84317461 -.00000304  00000+0  00000+0 0  9992
2 40547  28.7426 263.2064 0019096 191.2632 340.1920  1.00268294 27508
BEIDOU 17 (C31)         
1 40549U 15019A   22284.54078488 -.00000169  00000+0  00000+0 0  9995
2 40549  51.6857 311.4053 0038668 198.7492 160.4148  1.00272143 27591
GPS BIIF-10 (PRN 08)    
1 40730U 15033A   22283.55690806 -.00000070  00000+0  00000+0 0  9998
2 40730  55.1114 322.0385 0075626   7.5117 352.6595  2.00572178 53008
BEIDOU 18 (C57)         
1 40748U 15037A   22283.83057856 -.00000105  00000+0  00000+0 0  9993
2 40748  55.8221 347.8627 0001072 349.3888 130.0164  1.86233163 49065
BEIDOU 19 (C58)         
1 40749U 15037B   22284.45674000 -.00000106  00000+0  00000+0 0  9990
2 40749  55.8253 347.8317 0003528 294.2427  19.1556  1.86233040 49068
GSAT0205 (PRN E24)      
1 40889U 15045A   22283.02287663 -.00000017  00000+0  00000+0 0  9992
2 40889  55.5549 258.7974 0004302 352.7518   7.1991  1.70473111 44062
GSAT0206 (PRN E30)      
1 40890U 15045B   22282.65704800 -.00000018  00000+0  00000+0 0  9990
2 40890  55.5544 258.8031 0003212 328.8272  31.1117  1.70473124 44087
BEIDOU 20 (C18)         
1 40938U 15053A   22283.67559031 -.00000143  00000+0  00000+0 0  9998
2 40938  51.3251 274.5442 0046029 200.0948 243.9403  1.00266647 25863
GPS BIIF-11 (PRN 10)    
1 41019U 15062A   22283.60676033 -.00000016  00000+0  00000+0 0  9993
2 41019  55.8941  83.2349 0081574 217.4812 141.9562  2.00562595 50847
GSAT-15 (GAGAN/PRN 139) 
1 41028U 15065A   22284.10975338 -.00000266  00000+0  00000+0 0  9999
2 41028   0.0710  89.6496 0001998  83.1608 339.8861  1.00272137 25378
GSAT0209 (PRN E09)      
1 41174U 15079A   22284.00436251  .00000037  00000+0  00000+0 0  9996
2 41174  55.1852 138.2257 0002352 339.2095  20.8841  1.70474235 42424
GSAT0208 (PRN E08)      
1 41175U 15079B   22283.05068870  .00000041  00000+0  00000+0 0  9994
2 41175  55.1831 138.2503 0001835 344.7144  15.3866  1.70474148 42246
IRNSS-1E                
1 41241U 16003A   22283.87525106 -.00000285  00000+0  00000+0 0  9997
2 41241  30.2352  82.8221 0020927 179.1353 184.4532  1.00271314 24597
GPS BIIF-12 (PRN 32)    
1 41328U 16007A   22283.69454066  .00000043  00000+0  00000+0 0  9994
2 41328  54.9296 142.9019 0062951 229.7406 129.8036  2.00565504 48855
COSMOS 2514 (751)       
1 41330U 16008A   22284.38338431 -.00000083  00000+0  00000+0 0  9997
2 41330  65.5690 358.7766 0012025 211.5453 148.4391  2.13102672 51962
IRNSS-1F                
1 41384U 16015A   22283.85587414  .00000154  00000+0  00000+0 0  9990
2 41384   2.3356 148.4661 0018409 179.9796  31.5865  1.00277797 24173
BEIDOU IGSO-6 (C13)     
1 41434U 16021A   22284.32837439 -.00000157  00000+0  00000+0 0  9995
2 41434  58.2725  51.6378 0045731 215.3032 325.1209  1.00260791 23994
IRNSS-1G                
1 41469U 16027A   22283.98799247 -.00000340  00000+0  00000+0 0  9998
2 41469   2.2546 151.0901 0001593 344.4903   9.1935  1.00276296 23686
GSAT0211 (PRN E02)      
1 41549U 16030A   22280.23652954 -.00000007  00000+0  00000+0 0  9999
2 41549  55.7015 258.8149 0004735 311.9846  47.9456  1.70474593 39676
GSAT0210 (PRN E01)      
1 41550U 16030B   22282.87542890 -.00000017  00000+0  00000+0 0  9991
2 41550  55.6997 258.7437 0004504 285.1538  74.7537  1.70474581 39696
COSMOS 2516 (753)       
1 41554U 16032A   22279.58008641 -.00000008  00000+0  00000+0 0  9992
2 41554  63.9025 237.5865 0014936 216.3195 323.7703  2.13106437 49467
BEIDOU-2 G7 (C03)       
1 41586U 16037A   22283.87525074 -.00000361  00000+0  00000+0 0  9995
2 41586   1.6291  68.3863 0007421 352.2901  24.4116  1.00268557 23305
E 117 W B (WAAS/PRN 131)
1 41589U 16038B   22284.20649878 -.00000019  00000+0  00000+0 0  9996
2 41589   0.0046  17.3727 0000246  61.3185 258.4524  1.00271753 23216
GSAT0207 (PRN E07)      
1 41859U 16069A   22283.12506703  .00000040  00000+0  00000+0 0  9992
2 41859  54.8458 138.4028 0002019 312.0345  48.0547  1.70472867 36457
GSAT0212 (PRN E03)      
1 41860U 16069B   22282.97847803  .00000041  00000+0  00000+0 0  9996
2 41860  54.8430 138.4042 0001905  13.1790 346.9328  1.70472834 36700
GSAT0213 (PRN E04)      
1 41861U 16069C   22283.34376750  .00000039  00000+0  00000+0 0  9994
2 41861  54.8455 138.3995 0001718 264.0239  96.0623  1.70473026 36571
GSAT0214 (PRN E05)      
1 41862U 16069D   22282.90434331  .00000041  00000+0  00000+0 0  9999
2 41862  54.8438 138.4062 0000913 270.9354  89.1611  1.70472889 36698
SES-15 (WAAS/PRN 133)   
1 42709U 17026A   22284.19987875  .00000052  00000+0  00000+0 0  9995
2 42709   0.0343 353.9599 0000426 212.8944 115.7331  1.00268706 20697
QZS-2 (QZSS/PRN 184)    
1 42738U 17028A   22284.26401083 -.00000220  00000+0  00000+0 0  9997
2 42738  41.5869 262.5329 0747562 270.6000  80.8474  1.00255812 19650
QZS-3 (QZSS/PRN 189)    
1 42917U 17048A   22284.54840345 -.00000354  00000+0  00000+0 0  9995
2 42917   0.0533 173.8228 0002451  42.9163 127.7639  1.00277121 18885
COSMOS 2522 (752)       
1 42939U 17055A   22283.52839490 -.00000007  00000+0  00000+0 0  9998
2 42939  64.1353 237.8783 0009544 246.3002 297.7546  2.13102054 39301
QZS-4 (QZSS/PRN 185)    
1 42965U 17062A   22284.53250328 -.00000353  00000+0  00000+0 0  9998
2 42965  40.7407   0.6321 0749564 269.9903  80.0877  1.00275073 18324
BEIDOU-3 M1 (C19)       
1 43001U 17069A   22284.33664876  .00000019  00000+0  00000+0 0  9990
2 43001  55.6212 107.8001 0007425 294.2843 247.3271  1.86231674 33558
BEIDOU-3 M2 (C20)       
1 43002U 17069B   22284.31303675  .00000019  00000+0  00000+0 0  9996
2 43002  55.6205 107.8372 0005917 326.6481 241.9916  1.86231314 33540
GSAT0215 (PRN E21)      
1 43055U 17079A   22282.80741001 -.00000017  00000+0  00000+0 0  9995
2 43055  55.6759 258.5749 0003929 280.8178  79.0954  1.70473877 30037
GSAT0216 (PRN E25)      
1 43056U 17079B   22282.51296860 -.00000017  00000+0  00000+0 0  9992
2 43056  55.6767 258.5827 0005627 281.7931  78.1019  1.70473972 30047
GSAT0217 (PRN E27)      
1 43057U 17079C   22282.73323633 -.00000017  00000+0  00000+0 0  9996
2 43057  55.6746 258.5763 0005159 292.8258  67.0772  1.70473973 30032
GSAT0218 (PRN E31)      
1 43058U 17079D   22284.12644513 -.00000014  00000+0  00000+0 0  9992
2 43058  55.6737 258.5354 0006019 278.8870  81.0018  1.70473958 30053
BEIDOU-3 M3 (C27)       
1 43107U 18003A   22284.28763172 -.00000108  00000+0  00000+0 0  9999
2 43107  55.2745 348.7131 0003403  68.1779 289.7252  1.86232266 32309
BEIDOU-3 M4 (C28)       
1 43108U 18003B   22283.83570124 -.00000106  00000+0  00000+0 0  9991
2 43108  55.2678 348.7170 0004029 242.2498 215.8921  1.86230631 32303
BEIDOU-3 M5 (C21)       
1 43207U 18018A   22283.05975240  .00000033  00000+0  00000+0 0  9997
2 43207  55.5792 107.9537 0004457   7.6076 352.4549  1.86231643 31672
BEIDOU-3 M6 (C22)       
1 43208U 18018B   22284.20033660  .00000020  00000+0  00000+0 0  9993
2 43208  55.5797 107.9203 0005384 310.0377  49.9636  1.86231548 31694
BEIDOU-3 M7 (C29)       
1 43245U 18029A   22283.34629505 -.00000103  00000+0  00000+0 0  9992
2 43245  55.1840 346.5067 0001111 213.6388 143.6719  1.86232729 30823
BEIDOU-3 M8 (C30)       
1 43246U 18029B   22283.27621278 -.00000103  00000+0  10000-3 0  9999
2 43246  55.1803 346.5373 0002881 348.8782   8.0737  1.86232936 30810
IRNSS-1I                
1 43286U 18035A   22284.03243564  .00000108  00000+0  00000+0 0  9992
2 43286  29.3276  95.4727 0021132 177.1946 173.6764  1.00273959 16582
COSMOS 2527 (756)       
1 43508U 18053A   22283.72876847  .00000053  00000+0  00000+0 0  9999
2 43508  64.9941 118.9739 0007243 216.0417 153.7975  2.13102582 33603
BEIDOU IGSO-7 (C16)     
1 43539U 18057A   22284.63238313 -.00000117  00000+0  00000+0 0  9990
2 43539  55.0904 174.7046 0051594 227.0815 320.6316  1.00275170 15670
GSAT0221 (PRN E15)      
1 43564U 18060A   22277.57289016 -.00000094  00000+0  00000+0 0  9997
2 43564  57.2105  18.2373 0003488 250.0565 109.9197  1.70476016 26123
